{
    "links": {
        "self": "http://www.neowsapp.com/rest/v1/neo/3715411?api_key=iIulBulltgU6a56xZRHN4H3l9WmuAYTsLGpBGhQ2"
    },
    "id": "3715411",
    "neo_reference_id": "3715411",
    "name": "(2015 BW516)",
    "designation": "2015 BW516",
    "nasa_jpl_url": "http://ssd.jpl.nasa.gov/sbdb.cgi?sstr=3715411",
    "absolute_magnitude_h": 27.6,
    "estimated_diameter": {
        "kilometers": {
            "estimated_diameter_min": 0.0080270317,
            "estimated_diameter_max": 0.0179489885
        },
        "meters": {
            "estimated_diameter_min": 8.0270316728,
            "estimated_diameter_max": 17.948988478
        },
        "miles": {
            "estimated_diameter_min": 0.0049877647,
            "estimated_diameter_max": 0.0111529809
        },
        "feet": {
            "estimated_diameter_min": 26.3354065935,
            "estimated_diameter_max": 58.8877593581
        }
    },
    "is_potentially_hazardous_asteroid": false,
    "close_approach_data": [
        {
            "close_approach_date": "2012-05-20",
            "close_approach_date_full": "2012-May-20 23:15",
            "epoch_date_close_approach": 1337555700000,
            "relative_velocity": {
                "kilometers_per_second": "18.5324827213",
                "kilometers_per_hour": "66716.9377966904",
                "miles_per_hour": "41455.3105992825"
            },
            "miss_distance": {
                "astronomical": "0.2495679911",
                "lunar": "97.0819485379",
                "kilometers": "37334839.888738957",
                "miles": "23198793.7645013266"
            },
            "orbiting_body": "Earth"
        },
        {
            "close_approach_date": "2015-01-30",
            "close_approach_date_full": "2015-Jan-30 17:09",
            "epoch_date_close_approach": 1422637740000,
            "relative_velocity": {
                "kilometers_per_second": "11.3963849749",
                "kilometers_per_hour": "41026.985909527",
                "miles_per_hour": "25492.5735502836"
            },
            "miss_distance": {
                "astronomical": "0.0094415062",
                "lunar": "3.6727459118",
                "kilometers": "1412429.217111794",
                "miles": "877642.8186749972"
            },
            "orbiting_body": "Earth"
        },
        {
            "close_approach_date": "2158-01-16",
            "close_approach_date_full": "2158-Jan-16 04:48",
            "epoch_date_close_approach": 5934055680000,
            "relative_velocity": {
                "kilometers_per_second": "17.2720961163",
                "kilometers_per_hour": "62179.5460185403",
                "miles_per_hour": "38635.9518024647"
            },
            "miss_distance": {
                "astronomical": "0.1936041796",
                "lunar": "75.3120258644",
                "kilometers": "28962772.891257452",
                "miles": "17996632.5596867576"
            },
            "orbiting_body": "Earth"
        }
    ],
    "orbital_data": {
        "orbit_id": "6",
        "orbit_determination_date": "2019-07-18 07:27:16",
        "first_observation_date": "2015-01-18",
        "last_observation_date": "2015-01-28",
        "data_arc_in_days": 10,
        "observations_used": 24,
        "orbit_uncertainty": "8",
        "minimum_orbit_intersection": ".000351859",
        "jupiter_tisserand_invariant": "3.597",
        "epoch_osculation": "2457045.5",
        "eccentricity": ".5586368055566646",
        "semi_major_axis": "2.031516456889912",
        "inclination": "1.943651572862909",
        "ascending_node_longitude": "311.0480334381419",
        "orbital_period": "1057.618268978537",
        "perihelion_distance": ".8966365929771378",
        "perihelion_argument": "222.1390650937485",
        "aphelion_distance": "3.166396320802686",
        "perihelion_time": "2457084.528252446347",
        "mean_anomaly": "346.7152721423253",
        "mean_motion": ".3403874635672597",
        "equinox": "J2000",
        "orbit_class": {
            "orbit_class_type": "APO",
            "orbit_class_description": "Near-Earth asteroid orbits which cross the Earth’s orbit similar to that of 1862 Apollo",
            "orbit_class_range": "a (semi-major axis) > 1.0 AU; q (perihelion) < 1.017 AU"
        }
    },
    "is_sentry_object": false
}